OBJECT_NAME,OBJECT_ID,EPOCH,MEAN_MOTION,ECCENTRICITY,INCLINATION,RA_OF_ASC_NODE,ARG_OF_PERICENTER,MEAN_ANOMALY,EPHEMERIS_TYPE,CLASSIFICATION_TYPE,NORAD_CAT_ID,ELEMENT_SET_NO,REV_AT_EPOCH,BSTAR,MEAN_MOTION_DOT,MEAN_MOTION_DDOT
GONETS-M 11,2015-020A,2026-05-12T19:56:29.092128,12.42875999,.00174,82.4873,53.0185,78.5791,281.7242,0,U,40552,999,50434,.2763E-3,.48E-6,0
GONETS-M 12,2015-020B,2026-05-12T21:14:48.615360,12.42890303,.0016408,82.4907,54.0992,64.2774,295.9997,0,U,40553,999,50434,.3232E-3,.55E-6,0
GONETS-M 13,2015-020C,2026-05-12T20:35:45.925152,12.42868969,.0014944,82.4870,52.7415,50.4431,309.7966,0,U,40554,999,50431,.18747E-4,.13E-6,0
DMC3-FM1,2015-032A,2026-05-12T21:56:48.205248,14.85697568,.0005864,97.6512,359.4650,154.4363,205.7144,0,U,40715,999,58467,.83733E-4,.675E-5,0
DMC3-FM2,2015-032B,2026-05-12T20:51:44.849376,14.85704680,.0006202,97.6569,0.9711,160.3483,199.7973,0,U,40716,999,58466,.11939E-3,.984E-5,0
DMC3-FM3,2015-032C,2026-05-12T21:25:00.081984,14.85700576,.0005413,97.6621,2.7239,158.1634,201.9813,0,U,40717,999,58467,.18395E-5,-.35E-6,0
CARBONITE 1 (CBNT-1),2015-032D,2026-05-12T20:09:04.311072,14.83475344,.0015736,97.6503,312.3922,53.9390,306.3279,0,U,40718,999,58410,.12378E-3,.968E-5,0
DEORBITSAIL,2015-032E,2026-05-12T21:16:23.856672,15.03353624,.0012902,97.5931,350.3894,359.5860,0.5353,0,U,40719,999,58594,.41212E-3,.5548E-4,0
2015-049G,2015-049G,2026-05-12T21:09:42.736032,15.63732550,.0004025,97.4598,174.9036,6.9120,353.2193,0,U,40905,999,59092,.28831E-3,.26827E-3,0
LILACSAT-2,2015-049K,2026-05-12T20:21:44.061696,15.50253223,.0007642,97.4698,168.3720,37.9831,322.1958,0,U,40908,999,59027,.20403E-3,.11452E-3,0
COSMOS 2507 (RODNIK-S 13),2015-050A,2026-05-12T21:29:02.004576,12.42926401,.0011182,82.4888,101.6423,67.9140,292.3126,0,U,40920,999,48247,.98522E-3,.146E-5,0
COSMOS 2508 (RODNIK-S 14),2015-050B,2026-05-12T20:23:44.369376,12.42913488,.0015431,82.4841,100.1889,98.5217,261.7612,0,U,40921,999,48245,.10067E-2,.149E-5,0
COSMOS 2509 (RODNIK-S 15),2015-050C,2026-05-12T20:51:45.754848,12.42883405,.0015563,82.4850,100.2754,114.6485,245.6217,0,U,40922,999,48249,.14479E-2,.211E-5,0
LQSAT,2015-057A,2026-05-12T21:41:34.910592,14.76738373,.0017953,97.6681,128.0292,31.5479,328.6804,0,U,40958,999,57010,.71726E-4,.455E-5,0
LINGQIAO VIDEO A,2015-057B,2026-05-12T20:54:49.950144,14.77340582,.0017641,97.6623,129.4187,28.9843,331.2344,0,U,40959,999,57019,.15062E-4,.59E-6,0
LINGQIAO VIDEO B,2015-057C,2026-05-12T20:24:52.979616,14.77446003,.0017817,97.6590,130.5718,29.1832,331.0370,0,U,40960,999,57023,.33086E-4,.188E-5,0
JILIN-1,2015-057D,2026-05-12T21:06:56.428128,14.78099653,.0017578,97.6511,134.0020,23.6284,336.5731,0,U,40961,999,57039,.78366E-4,.519E-5,0
FOX-1A (AO-85),2015-058D,2026-05-12T20:49:13.836864,14.90756343,.0128975,64.7768,28.7277,70.4406,291.0579,0,U,40967,999,10830,.19978E-3,.2128E-4,0
SINOD-D 1,2015-058E,2026-05-12T20:14:16.513152,14.95623100,.0117458,64.7765,9.5719,67.2478,294.0998,0,U,40968,999,11137,.2483E-3,.2995E-4,0
ELEKTRO-L 2,2015-074A,2026-05-12T16:13:41.443104,1.00272860,.0001506,6.6047,70.9497,271.8063,116.6067,0,U,41105,999,3815,0,-.102E-5,0
DAMPE,2015-078A,2026-05-12T20:50:39.151680,15.30693571,.0011292,97.4572,138.1644,193.2987,166.7957,0,U,41173,999,57914,.27201E-4,.73E-5,0
ORBCOMM FM114,2015-081A,2026-05-12T10:23:55.495680,14.58817209,.0001778,47.0033,171.0391,6.4473,353.6435,0,U,41179,999,55253,.72278E-4,.17E-5,0
ORBCOMM FM110,2015-081D,2026-05-12T19:59:25.156320,14.58821723,.0004055,47.0002,168.6001,271.3020,88.7402,0,U,41182,999,55246,.85498E-4,.232E-5,0
ORBCOMM FM112,2015-081F,2026-05-12T16:00:05.503104,14.58755924,.0002369,46.9986,78.2018,32.4611,327.6420,0,U,41184,999,55376,.10938E-3,.345E-5,0
ORBCOMM FM113,2015-081G,2026-05-12T20:21:14.626944,14.58817789,.0001367,47.0006,77.7069,13.0229,347.0691,0,U,41185,999,55377,.82768E-4,.22E-5,0
ORBCOMM FM108,2015-081J,2026-05-12T14:31:29.565984,14.58819290,.0002289,47.0064,350.4207,25.9408,334.1593,0,U,41187,999,55488,.12288E-3,.409E-5,0
ORBCOMM FM117,2015-081K,2026-05-12T07:07:14.314944,14.58816798,.0002716,47.0027,350.5241,32.7641,327.3413,0,U,41188,999,55488,.11885E-3,.39E-5,0
ORBCOMM FM116,2015-081L,2026-05-12T05:00:50.763168,14.58825286,.0002378,47.0022,80.7264,273.3169,86.7445,0,U,41189,999,55368,.77583E-4,.195E-5,0
CHUBUSAT-2,2016-012B,2026-05-12T12:05:11.308704,15.20518978,.0008672,30.9973,195.4910,75.3331,284.8271,0,U,41338,999,56298,.13512E-3,.3142E-4,0
CHUBUSAT-3,2016-012C,2026-05-12T12:14:08.589696,15.18259770,.0009054,31.0041,204.1940,62.7237,297.4325,0,U,41339,999,56277,.12226E-3,.2675E-4,0
HORYU-4,2016-012D,2026-05-12T20:48:56.750400,15.78006687,.0005461,30.9892,334.3982,23.8940,336.1970,0,U,41340,999,56520,.74881E-3,.135031E-2,0
ZIYUAN 3-02 (ZY 3-02),2016-033A,2026-05-12T20:52:25.198176,15.21448419,.0013766,97.3842,209.3191,63.0023,297.2616,0,U,41556,999,55261,.1603E-3,.354E-4,0
CARTOSAT-2C,2016-040A,2026-05-12T19:45:35.993664,15.19198335,.0008314,97.4510,193.2814,255.4018,104.6295,0,U,41599,999,54834,.46732E-4,.916E-5,0
LAPAN-A3,2016-040E,2026-05-12T21:03:41.145120,15.32878058,.0011678,97.1488,130.1916,134.9230,225.2963,0,U,41603,999,54940,.75797E-4,.2336E-4,0
GAOFEN-3,2016-049A,2026-05-12T20:09:25.353792,14.42210244,.0000984,98.4027,141.1588,77.7101,282.4199,0,U,41727,999,51355,-.12004E-4,-.83E-6,0
PRATHAM,2016-059A,2026-05-12T18:43:02.784576,14.67146683,.0030558,97.8323,131.1953,334.0374,25.9296,0,U,41783,999,51432,.90562E-4,.465E-5,0
ALSAT-1N,2016-059G,2026-05-12T20:07:49.772928,14.69249020,.0024711,97.8020,137.7652,303.3839,56.5003,0,U,41789,999,51481,.85516E-4,.459E-5,0
CAS-2T & KS-1Q,2016-066G,2026-05-12T20:18:57.472128,14.44590786,.0341066,98.3825,208.9827,236.6839,120.1265,0,U,41847,999,49969,.8264E-4,.517E-5,0
YUNHAI-1 01,2016-068A,2026-05-12T21:33:16.104384,14.32713196,.000624,98.5851,144.2323,129.2107,230.9632,0,U,41857,999,49677,.40053E-4,.65E-6,0
RESOURCESAT-2A,2016-074A,2026-05-12T19:25:14.750400,14.21605419,.0002464,98.7530,206.6004,152.9531,207.1775,0,U,41877,999,48927,.64526E-4,.97E-6,0
TANSAT,2016-081A,2026-05-12T21:12:35.237088,14.59919125,.0021757,98.5372,132.0997,59.9939,300.3416,0,U,41898,999,49947,.16955E-4,.31E-6,0
JILIN-1 03,2017-002B,2026-05-12T20:00:12.112992,15.40708662,.000388,97.1960,140.4397,313.8751,46.2175,0,U,41914,999,51641,.21215E-3,.8583E-4,0
CARTOSAT-2D,2017-008A,2026-05-12T20:32:30.815808,15.19214793,.0004919,97.4131,192.8159,19.0745,341.0673,0,U,41948,999,51221,.52725E-4,.1043E-4,0
CARTOSAT-2E,2017-036C,2026-05-12T09:53:35.241216,15.19303241,.0004445,97.4300,192.7985,80.8401,279.3337,0,U,42767,999,49271,.11557E-3,.2372E-4,0
D-SAT,2017-036AF,2026-05-12T20:53:06.508608,15.16658078,.0080405,97.5539,111.8960,284.4867,74.7455,0,U,42794,999,48550,.21245E-3,.444E-4,0
IRIDIUM 113,2017-039A,2026-05-12T19:09:03.214368,14.34217540,.000223,86.3972,336.9783,92.7912,267.3539,0,U,42803,999,46611,.15312E-4,.63E-6,0
NORSAT 2,2017-042D,2026-05-12T17:05:03.770016,15.21193876,.001013,97.4024,306.7404,169.1055,191.0402,0,U,42828,999,48234,.31997E-3,.7077E-4,0
TECHNOSAT,2017-042E,2026-05-12T19:23:15.228960,15.04729636,.0017044,97.4234,291.8269,210.9026,149.1199,0,U,42829,999,48138,.1186E-3,.1616E-4,0
FLYING LAPTOP,2017-042G,2026-05-12T20:29:43.015776,15.00908794,.0017688,97.4529,289.7867,242.8890,117.0531,0,U,42831,999,48115,.20014E-3,.2499E-4,0
WNISAT 1R,2017-042L,2026-05-12T09:01:24.108672,15.01593159,.0010423,97.4792,289.7896,287.5567,72.4519,0,U,42835,999,48113,.14478E-3,.1821E-4,0
LEMUR-2-GREENBERG,2017-042N,2026-05-12T01:37:26.112576,15.30187317,.00102479,97.3813,312.8956,129.7813,230.4332,0,U,42837,999,48286,.35928657E-3,.10437E-3,0
LEMUR-2-FURIAUS,2017-042R,2026-05-11T10:42:17.584704,15.29022005,.00076497,97.3770,310.3181,184.7235,175.3935,0,U,42840,999,48259,.40551126E-3,.11368E-3,0
CORVUS BC2,2017-042X,2026-05-12T09:15:57.554784,15.06064122,.0011929,97.4038,295.1419,229.9139,130.1043,0,U,42846,999,48167,.16048E-3,.2286E-4,0
CORVUS BC1,2017-042Y,2026-05-12T10:49:43.001760,15.06236515,.0011269,97.4070,295.9952,203.3955,156.6762,0,U,42847,999,48171,.15841E-3,.2267E-4,0
VRSS-2,2017-060A,2026-05-12T20:31:35.815296,14.81133231,.0016143,97.6546,172.1697,211.2087,148.8169,0,U,42954,999,46322,.30922E-4,.191E-5,0
MOHAMMED VI-A,2017-070A,2026-05-12T20:23:30.796800,14.77091598,.0001386,97.9564,205.6643,103.0119,257.1246,0,U,43005,999,45876,.72714E-4,.463E-5,0
FENGYUN 3D,2017-072A,2026-05-12T21:50:12.182208,14.19732156,.0002154,99.0107,106.6992,122.3330,237.8054,0,U,43010,999,43998,.88438E-4,.141E-5,0
CZ-4C R/B,2017-072C,2026-05-12T20:28:32.445120,14.58747285,.0121278,98.5756,239.7018,260.6483,98.0986,0,U,43012,999,45148,.47576E-4,.187E-5,0
NOAA 20 (JPSS-1),2017-073A,2026-05-12T19:53:08.848032,14.19550947,.0001733,98.7760,72.6084,50.7762,309.3568,0,U,43013,999,43945,.27528E-4,.14E-6,0
MAKERSAT 0,2017-073D,2026-05-12T04:12:10.429344,15.30547279,.01118347,97.4681,14.4471,41.9670,319.0072,0,U,43016,999,46095,.44166751E-3,.15764E-3,0
RADFXSAT (FOX-1B),2017-073E,2026-05-12T21:03:27.448128,15.12053585,.015416,97.4761,0.8269,90.5575,271.3322,0,U,43017,999,46005,.26261E-3,.5964E-4,0
JILIN-1 04,2017-074A,2026-05-12T20:21:41.042016,15.41533489,.0003018,97.4819,241.5528,340.0831,20.0297,0,U,43022,999,46882,.19482E-3,.8088E-4,0
JILIN-1 05,2017-074B,2026-05-12T19:42:53.870976,15.33318759,.0005107,97.4828,238.5205,10.5104,349.6244,0,U,43023,999,46858,.1697E-3,.5384E-4,0
JILIN-1 06,2017-074C,2026-05-12T20:32:44.267424,15.33290324,.0007103,97.4758,235.6047,17.8388,342.3102,0,U,43024,999,46842,.11857E-3,.3735E-4,0
IRIDIUM 116,2017-083C,2026-05-12T06:49:15.768192,14.34218310,.0002174,86.3964,337.0186,79.4584,280.6856,0,U,43072,999,43902,.51961E-4,.165E-5,0
IRIDIUM 130,2017-083D,2026-05-12T19:27:19.219104,14.34217442,.0002159,86.3969,337.0700,81.6654,278.4787,0,U,43073,999,43904,-.62506E-5,.2E-7,0
LKW-2,2017-084A,2026-05-12T21:11:53.240640,15.25859956,.0002851,97.1227,174.3370,51.1367,309.0126,0,U,43080,999,46630,.137E-3,.344E-4,0
